GSAT0216 (GALILEO 20)   
1 43056U 17079B   26175.34569046  .00000050  00000+0  00000+0 0  9993
2 43056  55.0720 221.3096 0004593 276.6591  83.3714  1.70474733 53122
GSAT0217 (GALILEO 21)   
1 43057U 17079C   26175.56648917  .00000052  00000+0  00000+0 0  9995
2 43057  55.0690 221.3013 0003886 287.9346  72.1069  1.70474705 53112
GSAT0218 (GALILEO 22)   
1 43058U 17079D   26171.68048465  .00000026  00000+0  00000+0 0  9998
2 43058  55.0711 221.4058 0005507 273.6284  86.3834  1.70474354 53074
BEIDOU-3 M7             
1 43107U 18003A   26175.86797617 -.00000109  00000+0  00000+0 0  9998
2 43107  54.3206 302.0464 0004849  95.1161 264.9315  1.86228032 57491
BEIDOU-3 M8             
1 43108U 18003B   26174.20177464 -.00000108  00000+0  00000+0 0  9997
2 43108  54.3145 302.0864 0002542 259.7475 100.2170  1.86230831 57471
BEIDOU-3 M4             
1 43207U 18018A   26174.10784546 -.00000093  00000+0  00000+0 0  9990
2 43207  56.6562  62.9525 0007613  21.6777 338.3900  1.86231248 56859
BEIDOU-3 M3             
1 43208U 18018B   26175.24823940 -.00000095  00000+0  00000+0 0  9991
2 43208  56.6570  62.9189 0008331 342.5104  17.4973  1.86231188 56872
BEIDOU-3 M9             
1 43245U 18029A   26174.39218583 -.00000108  00000+0  00000+0 0  9995
2 43245  54.1874 299.7308 0001000 149.6212 210.3794  1.86228474 56013
BEIDOU-3 M10            
1 43246U 18029B   26176.47433906 -.00000105  00000+0  00000+0 0  9992
2 43246  54.1831 299.6846 0003789  41.3487 318.6744  1.86229259 56032
IRNSS-1I                
1 43286U 18035A   26175.79975266  .00000066  00000+0  00000+0 0  9992
2 43286  28.7725  74.0767 0017621 182.3144 359.3363  1.00275960 30158
COSMOS 2527 [GLONASS-M] 
1 43508U 18053A   26175.12361089 -.00000068  00000+0  00000+0 0  9991
2 43508  65.5817  73.6758 0006862 236.8617 123.1045  2.13102088 62420
BEIDOU-2 IGSO-7         
1 43539U 18057A   26176.68585466 -.00000023  00000+0  00000+0 0  9999
2 43539  55.1968 162.9827 0104889 238.0069 228.9610  1.00249090 29210
GSAT0221 (GALILEO 25)   
1 43564U 18060A   26175.10398177 -.00000098  00000+0  00000+0 0  9990
2 43564  57.1671 341.5936 0002530 300.0731  59.8987  1.70476197 49287
GSAT0222 (GALILEO 26)   
1 43565U 18060B   26176.49681494 -.00000097  00000+0  00000+0 0  9990
2 43565  57.1695 341.5596 0002086 244.5899 115.3843  1.70476000 49359
GSAT0219 (GALILEO 23)   
1 43566U 18060C   26174.37136182 -.00000098  00000+0  00000+0 0  9996
2 43566  57.1701 341.6184 0001850 318.0636  41.9192  1.70476156 49292
GSAT0220 (GALILEO 24)   
1 43567U 18060D   26175.76552895 -.00000097  00000+0  00000+0 0  9993
2 43567  57.1676 341.5803 0001926 308.3062  51.6730  1.70476182 49307
BEIDOU-3 M5             
1 43581U 18062A   26176.16142442  .00000103  00000+0  00000+0 0  9996
2 43581  54.0859 182.0325 0005742 290.3726  69.5972  1.86228844 53786
BEIDOU-3 M6             
1 43582U 18062B   26173.34014156  .00000091  00000+0  00000+0 0  9990
2 43582  54.0853 182.1173 0005022   8.9352 351.1006  1.86227655 53734
BEIDOU-3 M12            
1 43602U 18067A   26176.50030926  .00000101  00000+0  00000+0 0  9994
2 43602  54.1809 180.7580 0007829  29.6738 330.3993  1.86227714 53279
BEIDOU-3 M11            
1 43603U 18067B   26175.02451503  .00000103  00000+0  00000+0 0  9991
2 43603  54.1780 180.7717 0004529  12.6932 347.3467  1.86227182 53275
BEIDOU-3 M13            
1 43622U 18072A   26174.97931586 -.00000095  00000+0  00000+0 0  9996
2 43622  56.6310  62.4352 0007112 330.2799  29.7162  1.86231143 52784
BEIDOU-3 M14            
1 43623U 18072B   26172.15997709 -.00000080  00000+0  00000+0 0  9998
2 43623  56.6300  62.5227 0006113   1.7993 358.2413  1.86231105 52723
BEIDOU-3 M16            
1 43647U 18078A   26173.92607756 -.00000107  00000+0  00000+0 0  9996
2 43647  54.0842 299.7848 0007075  40.9359 319.1123  1.86232370 52262
BEIDOU-3 M15            
1 43648U 18078B   26175.12925215 -.00000108  00000+0  00000+0 0  9995
2 43648  54.0787 299.7429 0004022  57.9396 302.0936  1.86232514 52302
BEIDOU-3 G1             
1 43683U 18085A   26176.77055539 -.00000101  00000+0  00000+0 0  9990
2 43683   2.8907  97.1405 0008487 351.2424 262.8490  1.00270920 28143
COSMOS 2529 [GLONASS-M] 
1 43687U 18086A   26176.15856557  .00000107  00000+0  00000+0 0  9991
2 43687  64.2951 192.3252 0012096 256.3866 103.5319  2.13101985 59450
BEIDOU-3 M17            
1 43706U 18093A   26174.29511074  .00000100  00000+0  00000+0 0  9999
2 43706  54.1694 182.0887 0010172 292.5726 119.7810  1.86228518 51654
BEIDOU-3 M18            
1 43707U 18093B   26174.61735332  .00000101  00000+0  00000+0 0  9992
2 43707  54.1701 182.0698 0008114 320.9628  39.0087  1.86226670 51651
NAVSTAR 77 (USA 289)    
1 43873U 18109A   26175.75509874 -.00000062  00000+0  00000+0 0  9997
2 43873  55.6865  91.8879 0038373 197.7413 350.3852  2.00562159 55220
BEIDOU-3 IGSO-1         
1 44204U 19023A   26175.54148515 -.00000226  00000+0  00000+0 0  9992
2 44204  58.7053  37.5725 0025747 224.9564 323.4804  1.00289953  7288
BEIDOU-2 G8             
1 44231U 19027A   26176.83877050 -.00000239  00000+0  00000+0 0  9996
2 44231   1.6806  74.5263 0009959 284.6146   1.2791  1.00269005 26165
